KAITUO 1B               
1 40912U 15049P   23281.55386895  .00121943  00000+0  16707-2 0  9992
2 40912  97.4071 302.4463 0007298  45.7016 314.4836 15.56936804447165
COSMOS 2507             
1 40920U 15050A   23281.53694923  .00000035  00000+0  18388-3 0  9991
2 40920  82.4939 331.4149 0008496 338.5424  21.5298 12.42876070364785
COSMOS 2508             
1 40921U 15050B   23281.56421066  .00000041  00000+0  22699-3 0  9998
2 40921  82.4889 330.2770 0013773  12.1302 348.0107 12.42885139364772
COSMOS 2509             
1 40922U 15050C   23281.59051957  .00000025  00000+0  11230-3 0  9991
2 40922  82.4891 330.3405 0016192  25.1622 335.0243 12.42885982364817
LAPAN-A2                
1 40931U 15052B   23281.23949279  .00001826  00000+0  16202-3 0  9991
2 40931   6.0010 359.4292 0012516  96.7794 263.3758 14.77397513433985
LQSAT                   
1 40958U 15057A   23281.54371116  .00001355  00000+0  21226-3 0  9997
2 40958  97.6939 309.8220 0016899 213.9490 146.0639 14.74126889430406
LINGQIAO VIDEO A        
1 40959U 15057B   23281.59874524  .00001733  00000+0  26774-3 0  9997
2 40959  97.6941 310.9400 0016825 213.6692 146.3450 14.74415682430465
LINGQIAO VIDEO B        
1 40960U 15057C   23281.58005117  .00001720  00000+0  26515-3 0  9991
2 40960  97.6963 311.9814 0016931 214.1926 145.8195 14.74514224430490
JILIN-1                 
1 40961U 15057D   23281.56338840  .00001804  00000+0  27400-3 0  9999
2 40961  97.7017 314.4435 0017016 211.3811 148.6385 14.75120833430588
ELEKTRO-L 2             
1 41105U 15074A   23281.30378345 -.00000120  00000+0  00000+0 0  9999
2 41105   4.1927  82.4614 0003188 152.8774 236.2303  1.00271997 28651
TELEOS-1                
1 41169U 15077D   23281.53395539  .00021390  00000+0  88590-3 0  9996
2 41169  14.9800 259.7088 0008342 262.5204  97.4170 15.21487128432200
GALASSIA                
1 41170U 15077E   23281.10399447  .00155148  00000+0  20736-2 0  9999
2 41170  14.9860  83.1413 0003044 294.2143  65.7866 15.56088613433561
VELOX-II                
1 41171U 15077F   23281.12220015  .00046218  00000+0  13584-2 0  9996
2 41171  14.9896 205.9028 0005279 348.6830  11.3375 15.33177190432527
DAMPE                   
1 41173U 15078A   23281.56971499  .00003021  00000+0  12028-3 0  9994
2 41173  97.4151 271.6472 0011977 321.2201  38.8177 15.25970885434443
ORBCOMM FM114           
1 41179U 15081A   23281.43975013  .00001891  00000+0  46356-3 0  9990
2 41179  47.0033 319.1243 0001553 350.4834   9.6021 14.55959054414380
ORBCOMM FM110           
1 41182U 15081D   23281.55400870  .00002151  00000+0  52222-3 0  9990
2 41182  47.0016 318.0142 0002675 243.8442 116.2168 14.55957718414277
ORBCOMM FM112           
1 41184U 15081F   23281.59101340  .00002323  00000+0  56086-3 0  9999
2 41184  46.9976 226.8656 0000957  41.6901 318.4057 14.55958952415605
ORBCOMM FM113           
1 41185U 15081G   23281.56705857  .00001785  00000+0  43973-3 0  9992
2 41185  47.0008 227.1964 0000441  53.0962 306.9963 14.55949077415585
ORBCOMM FM108           
1 41187U 15081J   23281.52101382  .00001756  00000+0  43313-3 0  9999
2 41187  47.0037 138.5404 0002374 358.6173   1.4705 14.55972825416723
ORBCOMM FM117           
1 41188U 15081K   23281.41782280  .00001734  00000+0  42834-3 0  9993
2 41188  46.9998 137.9892 0002966   8.8286 351.2650 14.55943395416756
ORBCOMM FM116           
1 41189U 15081L   23281.54501741  .00002282  00000+0  55161-3 0  9995
2 41189  47.0004 227.1985 0001173  91.4183 268.6836 14.55957814415583
CHUBUSAT-2              
1 41338U 16012B   23281.52866085  .00008117  00000+0  55103-3 0  9998
2 41338  31.0014 212.6718 0012411 229.8432 130.1118 15.05020914419462
CHUBUSAT-3              
1 41339U 16012C   23281.20579126  .00007084  00000+0  48336-3 0  9993
2 41339  31.0079 212.1096 0012341 233.2002 126.7503 15.04778135419319
HORYU-4                 
1 41340U 16012D   23281.38615268  .00014295  00000+0  85534-3 0  9995
2 41340  31.0024 174.2737 0011790 298.2508  61.6940 15.09797394419832
OUFTI-1                 
1 41458U 16025C   23281.55075601  .00087639  00000+0  16879-2 0  9996
2 41458  98.1657 138.2095 0081363  52.5970 308.2647 15.43951985410473
E-ST@R-II               
1 41459U 16025D   23281.54408621  .00064102  00000+0  14587-2 0  9992
2 41459  98.1707 134.9382 0091571  62.6933 298.3597 15.38367998410275
AIST-2D (RS-48)         
1 41465U 16026B   23281.61374355  .00059960  00000+0  60220-3 0  9996
2 41465  96.9760 151.3025 0006971 147.3263 212.8431 15.65270835417662
ZIYUAN 3-2 (ZY 3-2)     
1 41556U 16033A   23281.57669042  .00014134  00000+0  63471-3 0  9995
2 41556  97.4844 353.9882 0004197 352.1981   7.9188 15.21269703408592
NUSAT-1 (FRESCO)        
1 41557U 16033B   23281.39212457  .00638060  17323-3  16156-2 0  9997
2 41557  97.3816  35.8068 0004168 293.3575  66.7262 15.95515173411402
CARTOSAT-2C             
1 41599U 16040A   23281.50281044  .00010165  00000+0  48419-3 0  9990
2 41599  97.4240 339.9384 0013034 317.5296  42.4929 15.19251011404519
LAPAN-A3                
1 41603U 16040E   23281.54344952  .00004819  00000+0  20661-3 0  9996
2 41603  97.1614 301.8827 0010599 277.2815  82.7218 15.23145633404749
BIROS                   
1 41604U 16040F   23281.55104411  .00015324  00000+0  50768-3 0  9996
2 41604  97.1549 313.1452 0008546 226.4605 133.5927 15.31342553405437
M3MSAT                  
1 41605U 16040G   23281.54051047  .00013016  00000+0  43809-3 0  9996
2 41605  97.1548 310.6616 0008054 247.2025 112.8366 15.30872120405278
GAOFEN-3                
1 41727U 16049A   23281.55175149  .00000254  00000+0  90193-4 0  9990
2 41727  98.4094 287.9351 0000966  59.5934 300.5351 14.42207164377014
QSS (MOZI)              
1 41731U 16051A   23281.58157667  .00012559  00000+0  40113-3 0  9993
2 41731  97.3136 190.5182 0012941  55.3422 304.9038 15.32522547397946
3CAT-2                  
1 41732U 16051B   23281.56595946  .00152406  00000+0  12644-2 0  9991
2 41732  97.3897 217.9929 0005845  49.2474 310.9294 15.69712840399151
PRATHAM                 
1 41783U 16059A   23281.54218710  .00001649  00000+0  31942-3 0  9999
2 41783  97.8616 307.5843 0034327 101.2382 259.2683 14.64187850375563
ALSAT 1N                
1 41789U 16059G   23281.55213808  .00001980  00000+0  37003-3 0  9991
2 41789  97.8591 313.2195 0029082  81.8339 278.6162 14.65700967375874
CAS-2T & KS-1Q          
1 41847U 16066G   23281.43719073  .00003601  00000+0  54121-3 0  9998
2 41847  98.4931 349.4201 0357632 217.3671 140.2156 14.40102978363104
YUNHAI 1                
1 41857U 16068A   23281.57257205  .00000720  00000+0  27865-3 0  9994
2 41857  98.5937 284.6606 0007869  34.3592 325.8100 14.33100796361100
RESOURCESAT-2A          
1 41877U 16074A   23281.62368128  .00000375  00000+0  19052-3 0  9991
2 41877  98.6738 354.8506 0001713  66.9115 293.2242 14.21646402354692
TANSAT                  
1 41898U 16081A   23281.56372636  .00001352  00000+0  30452-3 0  9997
2 41898  98.4355 243.1385 0022222 102.7594 257.6090 14.57907289361337
JILIN-1 03              
1 41914U 17002B   23281.55719299  .00010911  00000+0  58208-3 0  9999
2 41914  97.2414 305.0471 0012225  68.6629 291.5908 15.15253317371858
KAIDUN 1                
1 41915U 17002C   23281.56505980  .00018230  00000+0  81150-3 0  9995
2 41915  97.2362 313.4689 0009518  57.8282 302.3876 15.21474889372370
CARTOSAT-2D             
1 41948U 17008A   23281.60057653  .00010086  00000+0  48076-3 0  9992
2 41948  97.4645 339.5197 0005963  92.7457 267.4460 15.19288035368397
DIDO-2                  
1 42000U 17008BE  23281.38718138  .00044548  00000+0  92371-3 0  9996
2 42000  97.1885 335.9810 0004408   0.3254 359.7998 15.45588928369389
ZHUHAI-1 02 (CAS-4B)    
1 42759U 17034B   23281.26485972  .00018784  00000+0  87001-3 0  9997
2 42759  43.0139 206.0885 0009845 120.7486 239.4333 15.19746724348820
ZHUHAI-1 01 (CAS-4A)    
1 42761U 17034D   23281.47747171  .00018696  00000+0  86506-3 0  9996
2 42761  43.0136 203.4164 0010450 123.6314 236.5533 15.19780272348856
UCLSAT                  
1 42765U 17036A   23281.37071062  .00255170  00000+0  18121-2 0  9997
2 42765  97.1251 320.8213 0002861  59.7331 300.4216 15.73153871351528
NIUSAT                  
1 42766U 17036B   23281.57353766  .00065033  00000+0  12712-2 0  9991
2 42766  97.1469 310.8063 0009749  59.3251 300.8959 15.47177844350097
CARTOSAT-2E             
1 42767U 17036C   23281.61590683  .00010179  00000+0  48606-3 0  9991
2 42767  97.4769 339.2306 0006641 148.1084 212.0554 15.19219078348961
AALTO-1                 
1 42775U 17036L   23281.55477905  .00041245  00000+0  10078-2 0  9993
2 42775  97.1436 308.6302 0010477  63.4628 296.7692 15.40655568349942
URSA MAIOR              
1 42776U 17036M   23281.57420024  .00048465  00000+0  10735-2 0  9997
2 42776  97.1439 310.3921 0009692  60.1091 300.1119 15.43578478350042
MAX VALIER SAT          
1 42778U 17036P   23281.55116820  .00046589  00000+0  97410-3 0  9994
2 42778  97.1425 314.1032 0008370  61.2785 298.9304 15.45307451350197
DIAMOND RED             
1 42783U 17036U   23281.60063129  .00061385  00000+0  11545-2 0  9994
2 42783  97.1398 314.3148 0007951  62.1581 298.0475 15.48325621350293
PEGASUS                 
1 42784U 17036V   23281.10496318  .00124705  00000+0  14565-2 0  9991
2 42784  97.1341 317.9925 0005216  55.6321 304.5429 15.61183235350509
DIAMOND GREEN           
1 42785U 17036W   23281.36678405  .00076631  00000+0  13392-2 0  9990
2 42785  97.1378 314.5129 0007531  65.3637 294.8398 15.50365394350354
DIAMOND BLUE            
1 42786U 17036X   23281.31238604  .00065030  00000+0  11915-2 0  9999
2 42786  97.1392 314.2947 0007768  61.3296 298.8736 15.49062334350339
SKCUBE                  
1 42789U 17036AA  23281.59841598  .00298351  00000+0  19005-2 0  9996
2 42789  97.1249 321.9039 0002569  53.8273 306.3230 15.75571808350801
